#dP2020  4  2  0  0  0.00000000      96 __u+U ITR00 FIT  IAC
## 2099 345600.00000000   900.00000000 58941 0.0000000000000
+  113   C02C03C04C06C07C08C09C10C11C12C13C14C16C19C20C21C22
+        C23C24C25C26C27C28C29C30C32C33C34C35C36C37E01E02E03
+        E04E05E07E08E09E11E12E13E14E15E18E21E24E25E26E27E30
+        E31E33E36G01G02G03G04G05G06G07G08G09G10G11G12G13G14
+        G15G16G17G18G19G20G21G22G23G24G25G26G27G28G29G30G31
+        G32J01J02J03J07R01R02R03R04R05R07R08R09R11R12R13R14
+        R15R16R17R18R19R20R21R22R23R24R26  0  0  0  0  0  0
++        12 12 13  8  8  8  8  8  8  8  8  8  8  7  7  8  8
++         8  8  8  8  7  7  7  7  8  8  8  8  8  8  5  5  4
++         4  5  4  4  4  4  4  4  4  4  4  5  4  5  4  4  4
++         5  4  5  3  3  3  3  4  3  4  3  3  3  4  3  3  3
++         4  4  4  4  3  3  3  3  4  3  3  3  4  4  4  3  3
++         3  8  8  8 13  6  5  5  6  5  5  5  5  5  5  6  5
++         5  6  5  5  6  6  5  6  5  6  8  0  0  0  0  0  0
%c M  cc GPS ccc cccc cccc cccc cccc ccccc ccccc ccccc ccccc
%c cc cc ccc ccc cccc cccc cccc cccc ccccc ccccc ccccc ccccc
%f  0.0000000  0.000000000  0.00000000000  0.000000000000000
%f  0.0000000  0.000000000  0.00000000000  0.000000000000000
%i    0    0    0    0      0      0      0      0         0
%i    0    0    0    0      0      0      0      0         0
/* INFORMATION & ANALYSIS CENTER (IAC)            RAPID DATA
/* S/V CLOCKS ARE ALIGNED TO GNSS TIME                      
/* G:C1WC2W R:C1PC2P E:C1XC5X C:C2IC6I J:C1CC2S             
/* PCV:IGS14_2097 OL/AL:FES2004  NONE     YN ORB:CoN CLK:CoN
*  2020 04 02  6 30  0.00000000
PC02   4353.737649  41906.673816  -1217.870235    443.221971
PC03 -14770.125286  39456.513984   -379.467816    251.869946
PC04 -39624.853547  14423.617355    373.126005   -168.128726
PC06  -8478.127459  33638.005277 -23277.846249    242.109030
PC07 -17427.599209  22095.523338  31468.015116    895.085306
PC08 -24908.586225  33159.737725  -8383.037697   -182.237645
PC09   1403.603622  40602.591048 -10275.809548    443.948873
PC10  -1038.713776  26385.512908  33065.157535   -815.450759
PC11 -13730.668488  13442.543167  20312.071372   -277.664645
PC12 -14587.885467  -8103.355283  22397.676396    342.293220
PC13 -13324.927134  34280.834215 -20744.850018    358.158006
PC14 -19565.516895   4243.694100 -19383.462341    256.891917
PC16  -5074.220210  36138.046778 -20879.413178   -697.847600
PC19  11733.068271 -11385.906539  22647.321469    369.898758
PC20  24101.284770   2975.293761  13797.888219   -928.060854
PC21 -22472.556125 -16126.705940   3629.569816   -238.836707
PC22  -7656.692498 -19434.394331  18499.646270   -849.653922
PC23  -2911.215393  18422.624586  20755.501020   -930.203667
PC24 -25472.376641   6175.029087  -9625.504678   -874.993183
PC25 -19498.118777  18172.577913   8291.598493   -568.960834
PC26 -16569.595503  -7675.614543 -21117.446961    628.888200
PC27  11820.461016  17882.869489 -17867.684974    305.737697
PC28    807.432483  27795.946744  -2355.761406    296.719768
PC29   9800.556084 -21792.869378 -14424.781367    209.250521
PC30  15795.976392  -2702.905841 -22846.967805    295.868113
PC32  22641.184950  15928.382396  -3547.050087   -918.531713
PC33 -11712.779572  11428.812514 -22590.406877   -885.575599
PC34 -15817.019293   3105.573903  22773.796514   -598.053888
PC35  -1659.854170 -27790.325746   2208.354332   -911.028142
PC36  20067.544311 -17625.212670  -8075.321366   -821.247976
PC37  15810.460849   8552.608409  21355.372523   -849.194050
PE01 -27845.245092  -3999.007856  -9223.952749   -827.359916
PE02  27867.686089   3938.537611   9137.495357    123.583882
PE03  21914.594902  13172.581342  14928.221387   -283.420589
PE04 -16105.113728   6553.776429 -23947.097980   -497.230278
PE05  14928.039200  25390.309210  -2951.534813   -392.123957
PE07    741.162772 -22691.575367  18996.343091   -362.528691
PE08  15835.449452  -6774.679598  24079.216058   6198.198816
PE09   -392.681646  22691.460895 -19003.699507   6106.223974
PE11 -10426.758860  27504.578633  -3192.992981   2049.023455
PE12 -18956.670633  16672.849106  15440.591347   5874.480658
PE13  10485.607012 -27530.958657   2957.647174    399.732852
PE14 -15495.216208  -9213.705182  15320.598364   -962.564937
PE15  18807.025878 -16986.355818 -15292.310772    871.897526
PE18  21480.359751   4934.087646 -23894.360309  -1060.923040
PE21 -12958.786471 -14071.965458 -22596.509406   -591.248415
PE24  -9991.983154  16041.235880  22771.003921   5528.827922
PE25  12828.415669  14109.500455  22637.423601   -508.402772
PE26  -4238.940192 -21767.799700  19616.382118   3349.653494
PE27   9710.026902 -16082.832021 -22874.818297    249.555956
PE30  26745.254022  -8390.142946  -9503.491544   4018.982337
PE31 -26590.819089   8642.843462   9720.542930   -472.163281
PE33 -16089.880575  -3573.260974  24596.017393   -468.867965
PE36   3989.306687  21919.321832 -19472.659178    578.261350
PG01 -13662.867231  21713.751106  -6361.946343   -345.582138
PG02  19895.776073 -10239.477987 -13616.977864   -432.422218
PG03  -6958.756587  13861.806279 -21605.268248   -134.151874
PG04  -2159.631304  23282.317165 -12563.134309    -70.577245
PG05  24598.536845  -2854.405949   9732.812943    -10.142864
PG06  17045.810504   1259.983593 -20289.185654   -244.138372
PG07   1751.079796  18398.186000  19190.178998   -249.367147
PG08  -9405.992163  14593.349790  20045.332957    -29.232763
PG09   6895.504055  25490.123832  -2826.118544   -189.307986
PG10 -21629.253465 -11676.689159  10443.462167   -297.075644
PG11 -12434.809057  21940.701762   8305.124711   -316.849240
PG12   9740.291320 -12379.474543 -21593.787140    133.911947
PG13  13880.873038  -6358.366602  21605.512842     -1.119719
PG14 -15892.651594  -9532.348997 -18755.487303    -22.316776
PG15   8227.212562 -16158.224233  18976.234635   -240.811859
PG16 -24406.986114    344.352978  10792.839200   -141.881142
PG17  13737.409986  18761.069869 -12456.598712    242.131691
PG18   4003.372583 -20768.203141  16060.076944    141.333139
PG19  15384.538853  11336.469275 -18744.887901   -177.615827
PG20 -12485.026097 -14512.739777  18413.215444    527.843765
PG21  -3442.254565 -18464.447384  19667.301161    -19.649048
PG22 -15901.390726  11428.206182 -17663.615446   -785.219588
PG23    519.402936  23978.212043 -10625.082636   -125.277210
PG24  13682.686311 -22224.058417  -3921.407499    -11.138285
PG25  -2992.335080 -15741.997186 -21460.622102     -5.707938
PG26 -26342.830721  -4232.193197    256.338911    179.495304
PG27 -14585.567551   2858.419816  21895.542482   -255.479387
PG28  21123.192156  13141.446072   9678.615826    728.482997
PG29  -3444.897694 -25876.525663  -4880.978771    -71.169017
PG30  11613.128616  10576.577198  21451.128275   -189.153362
PG31 -18775.256578    583.706051 -18987.341530    -33.354990
PG32 -15615.839693 -17122.033039 -13032.376931    250.371824
PJ01 -23306.732251  18389.628878 -25367.500956   -332.130509
PJ02 -31093.712109  25778.253089  16942.017642     -2.169085
PJ03 -26897.940274  25320.855994  25367.197003     -1.620418
PJ07 -25393.887578  33651.452698    -43.615797      0.033658
PR01 -19987.966585  -8420.404483 -13407.345572     59.417194
PR02  -7328.271170   8053.162052 -23024.541151    419.765686
PR03   8245.256544  17632.928973 -16413.673325     12.591973
PR04  19019.385664  16987.677358   -536.158096     44.113103
PR05  18919.751261   6838.436978  15683.527648     47.873358
PR07  -8703.842540 -17843.416468  16079.721438    -35.006980
PR08 -18945.578683 -17079.607061    680.172159    -51.383856
PR09  16714.555290 -13099.677447 -14172.269797    125.086995
PR11 -15451.918297  -4793.211929 -19697.132819    -18.778153
PR12 -24165.309855   5031.897884  -6462.894255    119.119281
PR13 -19269.496304  12428.374814  11153.829240    -36.824348
PR14  -3088.495430  12280.676009  22146.648674     49.739344
PR15  14675.495420   5182.441369  20222.449556    106.260048
PR16  24066.542447  -5679.799311   5965.902479     -2.507725
PR17  -2895.127712  24926.704194  -4653.048290    314.027643
PR18   5388.843706  16145.670106 -18956.226834     30.601831
PR19  10708.576845   -519.063330 -23142.901108    -86.695198
PR20  10412.020755 -19381.146229 -12944.044692   -408.115454
PR21   2495.788430 -24753.982232   5590.044436   -115.314415
PR22  -6396.274816 -13958.691757  20417.759791    -20.275303
PR23 -11448.652226   7835.511647  21398.078528    296.508856
PR24  -9375.412041  21126.030912  10743.750110    -49.998488
PR26  10909.145625 -16124.648704 -16455.954447   -400.542600
EOF
